NORAD_CAT_ID,OBJECT_NAME,OBJECT_TYPE,EPOCH,MEAN_MOTION,ECCENTRICITY,INCLINATION,RA_OF_ASC_NODE,ARG_OF_PERICENTER,MEAN_ANOMALY,BSTAR,MEAN_MOTION_DOT,MEAN_MOTION_DDOT,TLE_LINE0,TLE_LINE1,TLE_LINE2,SEMIMAJOR_AXIS,PERIOD,APOGEE,PERIGEE,DECAYED
53982.0,STARLINK-5120,PAYLOAD,2023-09-29 09:07:48,15.08847693,0.0001682,53.2146,259.8896,92.0899,268.0285,0.00027667,4.119e-05,0.0,0 STARLINK-5120,1 53982U 22125U   23272.38042619  .00004119  00000-0  27667-3 0  9994,2 53982  53.2146 259.8896 0001682  92.0899 268.0285 15.08847693 54822,6917.857,95.437,540.885,538.558,0.0
53982.0,STARLINK-5120,PAYLOAD,2023-09-30 04:12:26,15.08847185,0.0001689,53.2147,256.3207,85.345,274.7735,0.00020532,2.982e-05,0.0,0 STARLINK-5120,1 53982U 22125U   23273.17530522  .00002982  00000-0  20532-3 0  9997,2 53982  53.2147 256.3207 0001689  85.3450 274.7735 15.08847185 54860,6917.858,95.437,540.892,538.555,0.0
53982.0,STARLINK-5120,PAYLOAD,2023-09-30 05:47:49,15.08848927,0.0001704,53.2149,256.0233,83.9433,276.1753,0.00022291,3.262e-05,0.0,0 STARLINK-5120,1 53982U 22125U   23273.24154421  .00003262  00000-0  22291-3 0  9991,2 53982  53.2149 256.0233 0001704  83.9433 276.1753 15.08848927 54952,6917.853,95.437,540.897,538.539,0.0
53982.0,STARLINK-5120,PAYLOAD,2023-10-01 02:27:50,15.08842564,0.000184,53.2157,252.1573,110.7262,249.3927,-3.8024e-05,-8.93e-06,0.0,0 STARLINK-5120,1 53982U 22125U   23274.10266449 -.00000893  00000-0 -38024-4 0  9992,2 53982  53.2157 252.1573 0001840 110.7262 249.3927 15.08842564 55086,6917.873,95.437,541.01,538.465,0.0
53982.0,STARLINK-5120,PAYLOAD,2023-10-01 05:38:36,15.08843942,0.0001867,53.2165,251.5665,110.7509,249.3683,5.1266e-05,5.28e-06,0.0,0 STARLINK-5120,1 53982U 22125U   23274.23514511  .00000528  00000-0  51266-4 0  9998,2 53982  53.2165 251.5665 0001867 110.7509 249.3683 15.08843942 55027,6917.868,95.437,541.025,538.442,0.0
53982.0,STARLINK-5120,PAYLOAD,2023-10-01 15:10:55,15.08841648,0.0001635,53.2155,249.7816,93.1981,266.9199,-3.8e-05,-8.93e-06,0.0,0 STARLINK-5120,1 53982U 22125U   23274.63258588 -.00000893  00000-0 -38000-4 0  9999,2 53982  53.2155 249.7816 0001635  93.1981 266.9199 15.08841648 55088,6917.875,95.437,540.871,538.609,0.0
53982.0,STARLINK-5120,PAYLOAD,2023-10-02 02:18:37,15.08832453,0.0001944,53.2177,247.7026,114.4805,245.639,-0.000124,-2.261e-05,0.0,0 STARLINK-5120,1 53982U 22125U   23275.09627298 -.00002261  00000-0 -12400-3 0  9994,2 53982  53.2177 247.7026 0001944 114.4805 245.6390 15.08832453 55236,6917.903,95.438,541.113,538.424,0.0
53982.0,STARLINK-5120,PAYLOAD,2023-10-02 15:01:43,15.08835447,0.0001937,53.2182,245.3233,105.6243,254.4963,9.2557e-06,-1.41e-06,0.0,0 STARLINK-5120,1 53982U 22125U   23275.62619363 -.00000141  00000-0  92557-5 0  9994,2 53982  53.2182 245.3233 0001937 105.6243 254.4963 15.08835447 55236,6917.894,95.438,541.099,538.419,0.0
53982.0,STARLINK-5120,PAYLOAD,2023-10-03 03:44:48,15.08842157,0.0001664,53.2166,242.9425,102.4196,257.6983,0.00017547,2.506e-05,0.0,0 STARLINK-5120,1 53982U 22125U   23276.15611270  .00002506  00000-0  17547-3 0  9992,2 53982  53.2166 242.9425 0001664 102.4196 257.6983 15.08842157 55393,6917.874,95.437,540.89,538.588,0.0
53982.0,STARLINK-5120,PAYLOAD,2023-10-03 08:30:57,15.0885171,0.0001585,53.2156,242.0488,99.5149,260.6023,0.00042046,6.412e-05,0.0,0 STARLINK-5120,1 53982U 22125U   23276.35482996  .00006412  00000-0  42046-3 0  9997,2 53982  53.2156 242.0488 0001585  99.5149 260.6023 15.08851710 55347,6917.845,95.437,540.806,538.613,0.0
53982.0,STARLINK-5120,PAYLOAD,2023-10-03 14:52:30,15.08845834,0.00017,53.216,240.8572,84.3555,275.763,0.00034253,5.168e-05,0.0,0 STARLINK-5120,1 53982U 22125U   23276.61979349  .00005168  00000-0  34253-3 0  9997,2 53982  53.2160 240.8572 0001700  84.3555 275.7630 15.08845834 55389,6917.863,95.437,540.904,538.552,0.0
53982.0,STARLINK-5120,PAYLOAD,2023-10-04 06:46:21,15.08839309,0.0001712,53.2161,237.8853,83.9331,276.1856,6.093e-05,6.82e-06,0.0,0 STARLINK-5120,1 53982U 22125U   23277.28219565  .00000682  00000-0  60930-4 0  9996,2 53982  53.2161 237.8853 0001712  83.9331 276.1856 15.08839309 55563,6917.883,95.438,540.932,538.563,0.0
53982.0,STARLINK-5120,PAYLOAD,2023-10-04 14:43:17,15.08844054,0.0001162,53.2163,236.4022,95.2454,264.8671,0.00014519,2.024e-05,0.0,0 STARLINK-5120,1 53982U 22125U   23277.61339246  .00002024  00000-0  14519-3 0  9995,2 53982  53.2163 236.4022 0001162  95.2454 264.8671 15.08844054 55538,6917.868,95.437,540.537,538.929,0.0
53982.0,STARLINK-5120,PAYLOAD,2023-10-05 03:26:21,15.08853589,0.0001619,53.2165,234.0182,106.767,253.35,0.00026458,3.927e-05,0.0,0 STARLINK-5120,1 53982U 22125U   23278.14330927  .00003927  00000-0  26458-3 0  9999,2 53982  53.2165 234.0182 0001619 106.7670 253.3500 15.08853589 55690,6917.839,95.437,540.824,538.584,0.0
53982.0,STARLINK-5120,PAYLOAD,2023-10-05 14:34:03,15.08849404,0.0001265,53.2145,231.9372,100.967,259.1465,0.00021939,3.206e-05,0.0,0 STARLINK-5120,1 53982U 22125U   23278.60698962  .00003206  00000-0  21939-3 0  9995,2 53982  53.2145 231.9372 0001265 100.9670 259.1465 15.08849404 55761,6917.852,95.437,540.592,538.842,0.0
53982.0,STARLINK-5120,PAYLOAD,2023-10-06 03:17:08,15.08849524,0.0001595,53.2164,229.559,100.8094,259.3078,0.00028625,4.272e-05,0.0,0 STARLINK-5120,1 53982U 22125U   23279.13690903  .00004272  00000-0  28625-3 0  9994,2 53982  53.2164 229.5590 0001595 100.8094 259.3078 15.08849524 55767,6917.851,95.437,540.82,538.613,0.0
53982.0,STARLINK-5120,PAYLOAD,2023-10-06 14:24:51,15.08844847,0.0001436,53.2166,227.4767,89.6734,270.4423,0.0001773,2.535e-05,0.0,0 STARLINK-5120,1 53982U 22125U   23279.60059136  .00002535  00000-0  17730-3 0  9998,2 53982  53.2166 227.4767 0001436  89.6734 270.4423 15.08844847 55919,6917.866,95.437,540.724,538.737,0.0
53982.0,STARLINK-5120,PAYLOAD,2023-10-07 01:32:33,15.08838351,0.0001663,53.2166,225.3966,117.2358,242.8804,6.1286e-05,6.87e-06,0.0,0 STARLINK-5120,1 53982U 22125U   23280.06427476  .00000687  00000-0  61286-4 0  9998,2 53982  53.2166 225.3966 0001663 117.2358 242.8804 15.08838351 55985,6917.885,95.438,540.901,538.6,0.0
53982.0,STARLINK-5120,PAYLOAD,2023-10-07 06:18:42,15.08835604,0.0001665,53.2171,224.5024,98.4455,261.6725,-2.0069e-05,-6.07e-06,0.0,0 STARLINK-5120,1 53982U 22125U   23280.26299696 -.00000607  00000-0 -20069-4 0  9999,2 53982  53.2171 224.5024 0001665  98.4455 261.6725 15.08835604 55931,6917.894,95.438,540.911,538.607,0.0
53982.0,STARLINK-5120,PAYLOAD,2023-10-07 20:37:11,15.08839254,0.0001603,53.217,221.8261,88.949,271.1686,0.00020621,2.995e-05,0.0,0 STARLINK-5120,1 53982U 22125U   23280.85915942  .00002995  00000-0  20621-3 0  9996,2 53982  53.2170 221.8261 0001603  88.9490 271.1686 15.08839254 56026,6917.883,95.438,540.857,538.639,0.0
53982.0,STARLINK-5120,PAYLOAD,2023-10-08 02:58:43,15.08851676,0.0001392,53.2157,220.6375,89.3412,270.7739,0.0005262,8.099e-05,0.0,0 STARLINK-5120,1 53982U 22125U   23281.12411640  .00008099  00000-0  52620-3 0  9998,2 53982  53.2157 220.6375 0001392  89.3412 270.7739 15.08851676 56147,6917.845,95.437,540.673,538.747,0.0
53982.0,STARLINK-5120,PAYLOAD,2023-10-08 12:31:02,15.08849502,0.0001481,53.2162,218.854,89.3992,270.717,0.00049455,7.594e-05,0.0,0 STARLINK-5120,1 53982U 22125U   23281.52155800  .00007594  00000-0  49455-3 0  9996,2 53982  53.2162 218.8540 0001481  89.3992 270.7170 15.08849502 56120,6917.851,95.437,540.741,538.692,0.0
53982.0,STARLINK-5120,PAYLOAD,2023-10-08 20:27:57,15.08857933,0.0001678,53.2169,217.3681,105.3502,254.7676,4.5687e-05,4.39e-06,0.0,0 STARLINK-5120,1 53982U 22125U   23281.85275450  .00000439  00000-0  45687-4 0  9991,2 53982  53.2169 217.3681 0001678 105.3502 254.7676 15.08857933 56176,6917.826,95.436,540.851,538.53,0.0
53982.0,STARLINK-5120,PAYLOAD,2023-10-09 06:00:16,15.0888216,0.0001484,53.2162,215.5833,108.2473,251.8681,0.0015409,0.00024349,0.0,0 STARLINK-5120,1 53982U 22125U   23282.25018667  .00024349  00000-0  15409-2 0  9994,2 53982  53.2162 215.5833 0001484 108.2473 251.8681 15.08882160 56312,6917.752,95.435,540.643,538.59,0.0
53982.0,STARLINK-5120,PAYLOAD,2023-10-09 12:21:49,15.08849021,0.0002804,53.2164,214.3923,78.2678,281.8628,0.00041318,6.295e-05,0.0,0 STARLINK-5120,1 53982U 22125U   23282.51515684  .00006295  00000-0  41318-3 0  9993,2 53982  53.2164 214.3923 0002804  78.2678 281.8628 15.08849021 56279,6917.853,95.437,541.658,537.778,0.0
53982.0,STARLINK-5120,PAYLOAD,2023-10-10 01:04:54,15.08829376,0.0001477,53.2165,212.0158,99.7965,260.3194,-0.00022737,-3.904e-05,0.0,0 STARLINK-5120,1 53982U 22125U   23283.04507759 -.00003904  00000-0 -22737-3 0  9996,2 53982  53.2165 212.0158 0001477  99.7965 260.3194 15.08829376 56436,6917.913,95.438,540.8,538.756,0.0
53982.0,STARLINK-5120,PAYLOAD,2023-10-10 12:12:36,15.08838319,0.000124,53.2158,209.9336,81.8811,278.2322,0.00083769,0.00013068,0.0,0 STARLINK-5120,1 53982U 22125U   23283.50876118  .00013068  00000-0  83769-3 0  9997,2 53982  53.2158 209.9336 0001240  81.8811 278.2322 15.08838319 56428,6917.886,95.438,540.608,538.893,0.0
53982.0,STARLINK-5120,PAYLOAD,2023-10-11 02:31:05,15.08838937,0.0001712,53.2173,207.2586,86.6828,273.436,0.00028025,4.175e-05,0.0,0 STARLINK-5120,1 53982U 22125U   23284.10492401  .00004175  00000-0  28025-3 0  9996,2 53982  53.2173 207.2586 0001712  86.6828 273.4360 15.08838937 56591,6917.884,95.438,540.933,538.564,0.0
53982.0,STARLINK-5120,PAYLOAD,2023-10-11 12:03:24,15.08838396,0.0001443,53.2162,205.473,90.7918,269.324,0.00030189,4.52e-05,0.0,0 STARLINK-5120,1 53982U 22125U   23284.50236582  .00004520  00000-0  30189-3 0  9994,2 53982  53.2162 205.4730 0001443  90.7918 269.3240 15.08838396 56575,6917.885,95.438,540.749,538.752,0.0
53982.0,STARLINK-5120,PAYLOAD,2023-10-12 03:57:15,15.08849094,0.000149,53.2163,202.4992,88.5888,271.5275,0.00045866,7.021e-05,0.0,0 STARLINK-5120,1 53982U 22125U   23285.16476540  .00007021  00000-0  45866-3 0  9994,2 53982  53.2163 202.4992 0001490  88.5888 271.5275 15.08849094 56756,6917.853,95.437,540.748,538.687,0.0
